*******************************************************************************
Ephemeris / WWW_USER Mon Mar 24 10:51:15 2025 Pasadena, USA      / Horizons    
*******************************************************************************
Target body name: (2018 PM20)                     {source: JPL#2}
Center body name: Earth (399)                     {source: DE441}
Center-site name: Mauna Kea
*******************************************************************************
Start time      : A.D. 2018-Aug-02 05:08:00.0000 UT      
Stop  time      : A.D. 2018-Aug-02 15:48:00.0000 UT      
Step-size       : 1 minutes
*******************************************************************************
Target pole/equ : undefined
Target radii    : undefined                                                    
Center geodetic : 204.5278, 19.8260847, 4.21024   {E-lon(deg),Lat(deg),Alt(km)}
Center cylindric: 204.5278, 6006.35451, 2151.0229 {E-lon(deg),Dxy(km),Dz(km)}
Center pole/equ : ITRF93                          {East-longitude positive}
Center radii    : 6378.137, 6378.137, 6356.752 km {Equator_a, b, pole_c}       
Target primary  : Sun
Vis. interferer : MOON (R_eq= 1737.400) km        {source: DE441}
Rel. light bend : Sun                             {source: DE441}
Rel. lght bnd GM: 1.3271E+11 km^3/s^2                                          
Small-body perts: Yes                             {source: SB441-N16}
Atmos refraction: NO (AIRLESS)
RA format       : HMS
Time format     : CAL 
Calendar mode   : Mixed Julian/Gregorian
RTS-only print  : NO       
EOP file        : eop.250321.p250617                                           
EOP coverage    : DATA-BASED 1962-JAN-20 TO 2025-MAR-21. PREDICTS-> 2025-JUN-16
Units conversion: 1 au= 149597870.700 km, c= 299792.458 km/s, 1 day= 86400.0 s 
Table cut-offs 1: Elevation (-90.0deg=NO ),Airmass (>38.000=NO), Daylight (YES)
Table cut-offs 2: Solar elongation (  0.0,180.0=NO ),Local Hour Angle( 0.0=NO )
Table cut-offs 3: RA/DEC angular rate (     0.0=NO )                           
*******************************************************************************
Initial IAU76/J2000 heliocentric ecliptic osculating elements (au, days, deg.):
  EPOCH=  2458343.5 ! 2018-Aug-13.00 (TDB)         Residual RMS= .089003       
   EC= .5103595829140648   QR= .9783824475456468   TP= 2458372.5495769856      
   OM= 141.729241004527    W=  213.3086535448706   IN= 3.923256746335003       
  Equivalent ICRF heliocentric cartesian coordinates (au, au/d):
   X= 8.000585561647119E-01  Y=-6.125483166279821E-01  Z=-2.634816273742420E-01
  VX= 9.656077190407949E-03 VY= 1.708944028933422E-02 VZ= 5.904161592396531E-03
Asteroid physical parameters (km, seconds, rotational period in hours):        
   GM= n.a.                RAD= n.a.               ROTPER= n.a.                
   H= 26.3                 G= .150                 B-V= n.a.                   
                           ALBEDO= n.a.            STYP= n.a.                  
*******************************************************************************
 Date__(UT)__HR:MN     R.A._________(ICRF)_________DEC
******************************************************
$$SOE
 2018-Aug-02 07:11     19 53 10.607497 -08 42 43.48681
 2018-Aug-02 07:12     19 53 10.739891 -08 42 43.54681
 2018-Aug-02 07:13     19 53 10.872222 -08 42 43.60659
 2018-Aug-02 07:14     19 53 11.004489 -08 42 43.66613
 2018-Aug-02 07:15     19 53 11.136694 -08 42 43.72544
 2018-Aug-02 07:16     19 53 11.268836 -08 42 43.78451
 2018-Aug-02 07:17     19 53 11.400916 -08 42 43.84335
 2018-Aug-02 07:18     19 53 11.532935 -08 42 43.90196
 2018-Aug-02 07:19     19 53 11.664894 -08 42 43.96032
 2018-Aug-02 07:20     19 53 11.796792 -08 42 44.01845
 2018-Aug-02 07:21     19 53 11.928629 -08 42 44.07635
 2018-Aug-02 07:22     19 53 12.060408 -08 42 44.13400
 2018-Aug-02 07:23     19 53 12.192128 -08 42 44.19141
 2018-Aug-02 07:24     19 53 12.323789 -08 42 44.24858
 2018-Aug-02 07:25     19 53 12.455392 -08 42 44.30552
 2018-Aug-02 07:26     19 53 12.586938 -08 42 44.36220
 2018-Aug-02 07:27     19 53 12.718426 -08 42 44.41865
 2018-Aug-02 07:28     19 53 12.849858 -08 42 44.47486
 2018-Aug-02 07:29     19 53 12.981235 -08 42 44.53082
 2018-Aug-02 07:30     19 53 13.112555 -08 42 44.58653
 2018-Aug-02 07:31     19 53 13.243821 -08 42 44.64200
 2018-Aug-02 07:32     19 53 13.375032 -08 42 44.69723
 2018-Aug-02 07:33     19 53 13.506189 -08 42 44.75220
 2018-Aug-02 07:34     19 53 13.637292 -08 42 44.80694
 2018-Aug-02 07:35     19 53 13.768342 -08 42 44.86142
 2018-Aug-02 07:36     19 53 13.899340 -08 42 44.91565
 2018-Aug-02 07:37     19 53 14.030286 -08 42 44.96964
 2018-Aug-02 07:38     19 53 14.161180 -08 42 45.02337
 2018-Aug-02 07:39     19 53 14.292023 -08 42 45.07685
 2018-Aug-02 07:40     19 53 14.422816 -08 42 45.13009
 2018-Aug-02 07:41     19 53 14.553559 -08 42 45.18307
 2018-Aug-02 07:42     19 53 14.684252 -08 42 45.23580
 2018-Aug-02 07:43     19 53 14.814896 -08 42 45.28827
 2018-Aug-02 07:44     19 53 14.945491 -08 42 45.34049
 2018-Aug-02 07:45     19 53 15.076039 -08 42 45.39246
 2018-Aug-02 07:46     19 53 15.206539 -08 42 45.44417
 2018-Aug-02 07:47     19 53 15.336992 -08 42 45.49563
 2018-Aug-02 07:48     19 53 15.467399 -08 42 45.54682
 2018-Aug-02 07:49     19 53 15.597759 -08 42 45.59777
 2018-Aug-02 07:50     19 53 15.728075 -08 42 45.64845
 2018-Aug-02 07:51     19 53 15.858345 -08 42 45.69888
 2018-Aug-02 07:52     19 53 15.988571 -08 42 45.74905
 2018-Aug-02 07:53     19 53 16.118753 -08 42 45.79896
 2018-Aug-02 07:54     19 53 16.248892 -08 42 45.84861
 2018-Aug-02 07:55     19 53 16.378988 -08 42 45.89800
 2018-Aug-02 07:56     19 53 16.509042 -08 42 45.94712
 2018-Aug-02 07:57     19 53 16.639054 -08 42 45.99599
 2018-Aug-02 07:58     19 53 16.769025 -08 42 46.04459
 2018-Aug-02 07:59     19 53 16.898955 -08 42 46.09293
 2018-Aug-02 08:00     19 53 17.028845 -08 42 46.14101
 2018-Aug-02 08:01     19 53 17.158695 -08 42 46.18883
 2018-Aug-02 08:02     19 53 17.288506 -08 42 46.23638
 2018-Aug-02 08:03     19 53 17.418278 -08 42 46.28366
 2018-Aug-02 08:04     19 53 17.548013 -08 42 46.33068
 2018-Aug-02 08:05     19 53 17.677710 -08 42 46.37744
 2018-Aug-02 08:06     19 53 17.807370 -08 42 46.42393
 2018-Aug-02 08:07     19 53 17.936994 -08 42 46.47015
 2018-Aug-02 08:08     19 53 18.066581 -08 42 46.51610
 2018-Aug-02 08:09     19 53 18.196134 -08 42 46.56179
 2018-Aug-02 08:10     19 53 18.325651 -08 42 46.60720
 2018-Aug-02 08:11     19 53 18.455134 -08 42 46.65235
 2018-Aug-02 08:12     19 53 18.584584 -08 42 46.69723
 2018-Aug-02 08:13     19 53 18.714000 -08 42 46.74184
 2018-Aug-02 08:14     19 53 18.843384 -08 42 46.78618
 2018-Aug-02 08:15     19 53 18.972735 -08 42 46.83025
 2018-Aug-02 08:16     19 53 19.102055 -08 42 46.87404
 2018-Aug-02 08:17     19 53 19.231344 -08 42 46.91757
 2018-Aug-02 08:18     19 53 19.360603 -08 42 46.96082
 2018-Aug-02 08:19  m  19 53 19.489831 -08 42 47.00380
 2018-Aug-02 08:20  m  19 53 19.619031 -08 42 47.04651
 2018-Aug-02 08:21  m  19 53 19.748201 -08 42 47.08894
 2018-Aug-02 08:22  m  19 53 19.877343 -08 42 47.13110
 2018-Aug-02 08:23  m  19 53 20.006458 -08 42 47.17299
 2018-Aug-02 08:24  m  19 53 20.135545 -08 42 47.21460
 2018-Aug-02 08:25  m  19 53 20.264606 -08 42 47.25593
 2018-Aug-02 08:26  m  19 53 20.393640 -08 42 47.29699
 2018-Aug-02 08:27  m  19 53 20.522650 -08 42 47.33778
 2018-Aug-02 08:28  m  19 53 20.651634 -08 42 47.37828
 2018-Aug-02 08:29  m  19 53 20.780594 -08 42 47.41851
 2018-Aug-02 08:30  m  19 53 20.909530 -08 42 47.45847
 2018-Aug-02 08:31  m  19 53 21.038443 -08 42 47.49814
 2018-Aug-02 08:32  m  19 53 21.167333 -08 42 47.53754
 2018-Aug-02 08:33  m  19 53 21.296201 -08 42 47.57666
 2018-Aug-02 08:34  m  19 53 21.425047 -08 42 47.61550
 2018-Aug-02 08:35  m  19 53 21.553872 -08 42 47.65406
 2018-Aug-02 08:36  m  19 53 21.682677 -08 42 47.69234
 2018-Aug-02 08:37  m  19 53 21.811463 -08 42 47.73035
 2018-Aug-02 08:38  m  19 53 21.940228 -08 42 47.76807
 2018-Aug-02 08:39  m  19 53 22.068975 -08 42 47.80551
 2018-Aug-02 08:40  m  19 53 22.197704 -08 42 47.84267
 2018-Aug-02 08:41  m  19 53 22.326415 -08 42 47.87955
 2018-Aug-02 08:42  m  19 53 22.455109 -08 42 47.91615
 2018-Aug-02 08:43  m  19 53 22.583787 -08 42 47.95246
 2018-Aug-02 08:44  m  19 53 22.712449 -08 42 47.98850
 2018-Aug-02 08:45  m  19 53 22.841095 -08 42 48.02425
 2018-Aug-02 08:46  m  19 53 22.969727 -08 42 48.05972
 2018-Aug-02 08:47  m  19 53 23.098344 -08 42 48.09491
 2018-Aug-02 08:48  m  19 53 23.226948 -08 42 48.12981
 2018-Aug-02 08:49  m  19 53 23.355539 -08 42 48.16443
 2018-Aug-02 08:50  m  19 53 23.484117 -08 42 48.19877
 2018-Aug-02 08:51  m  19 53 23.612684 -08 42 48.23282
 2018-Aug-02 08:52  m  19 53 23.741239 -08 42 48.26659
 2018-Aug-02 08:53  m  19 53 23.869783 -08 42 48.30007
 2018-Aug-02 08:54  m  19 53 23.998317 -08 42 48.33327
 2018-Aug-02 08:55  m  19 53 24.126841 -08 42 48.36618
 2018-Aug-02 08:56  m  19 53 24.255357 -08 42 48.39881
 2018-Aug-02 08:57  m  19 53 24.383864 -08 42 48.43115
 2018-Aug-02 08:58  m  19 53 24.512363 -08 42 48.46320
 2018-Aug-02 08:59  m  19 53 24.640854 -08 42 48.49497
 2018-Aug-02 09:00  m  19 53 24.769339 -08 42 48.52646
 2018-Aug-02 09:01  m  19 53 24.897818 -08 42 48.55765
 2018-Aug-02 09:02  m  19 53 25.026292 -08 42 48.58856
 2018-Aug-02 09:03  m  19 53 25.154760 -08 42 48.61919
 2018-Aug-02 09:04  m  19 53 25.283224 -08 42 48.64952
 2018-Aug-02 09:05  m  19 53 25.411684 -08 42 48.67957
 2018-Aug-02 09:06  m  19 53 25.540141 -08 42 48.70933
 2018-Aug-02 09:07  m  19 53 25.668595 -08 42 48.73881
 2018-Aug-02 09:08  m  19 53 25.797047 -08 42 48.76799
 2018-Aug-02 09:09  m  19 53 25.925497 -08 42 48.79689
 2018-Aug-02 09:10  m  19 53 26.053947 -08 42 48.82550
 2018-Aug-02 09:11  m  19 53 26.182396 -08 42 48.85382
 2018-Aug-02 09:12  m  19 53 26.310846 -08 42 48.88185
 2018-Aug-02 09:13  m  19 53 26.439296 -08 42 48.90960
